0 IRIDIUM 33 DEB
1 38226U 97051ZA  13281.85393088  .00000680  00000-0  23872-3 0   846
2 38226 086.3900 130.5649 0010999 308.1447 051.8747 14.33535931219463
0 IRIDIUM 33 DEB
1 38226U 97051ZA  13284.29698441  .00000696  00000-0  24466-3 0   856
2 38226 086.3863 129.5452 0009919 299.6496 060.3746 14.33539457219819
0 IRIDIUM 33 DEB
1 38226U 97051ZA  13287.85685209  .00000760  00000-0  26786-3 0   869
2 38226 086.3849 128.0486 0010731 287.9312 072.1009 14.33545798220321
0 IRIDIUM 33 DEB
1 38226U 97051ZA  13290.85829166  .00000810  00000-0  28589-3 0   875
2 38226 086.3809 126.7954 0010917 279.9215 080.0957 14.33551402220757
0 IRIDIUM 33 DEB
1 38226U 97051ZA  13293.78991598  .00000981  00000-0  34746-3 0   881
2 38226 086.3861 125.5669 0009480 266.1171 093.9196 14.33559467221171
